{"type":"FeatureCollection","features":[{"type":"Feature","properties":{"stroke":"#2980B9","stroke-width":3,"stroke-opacity":1,"fill":"#2980B9","fill-opacity":0.15},"geometry":{"type":"Polygon","coordinates":[[[-87.657786,41.89624],[-87.64325,41.896428],[-87.644725,41.897925],[-87.645207,41.898547],[-87.646427,41.90077],[-87.648964,41.903327],[-87.64906,41.903662],[-87.654905,41.910402],[-87.656318,41.910545],[-87.656575,41.910784],[-87.626195,41.911262],[-87.626066,41.909159],[-87.625006,41.904929],[-87.624204,41.902706],[-87.623561,41.901989],[-87.622694,41.901415],[-87.62141,41.901152],[-87.620189,41.901056],[-87.619804,41.900937],[-87.617093,41.896751],[-87.616995,41.896752],[-87.614373,41.892763],[-87.614309,41.888226],[-87.614152,41.88662],[-87.614245,41.88498],[-87.61448,41.884351],[-87.615089,41.88381],[-87.616871,41.882833],[-87.617222,41.882484],[-87.617574,41.881751],[-87.61735,41.869859],[-87.617467,41.869334],[-87.619502,41.867003],[-87.619698,41.866128],[-87.619307,41.863301],[-87.614767,41.852983],[-87.644863,41.852808],[-87.644863,41.853391],[-87.643923,41.856947],[-87.644549,41.874405],[-87.643735,41.875862],[-87.651789,41.875909],[-87.656792,41.876279],[-87.666456,41.876137],[-87.666914,41.890895],[-87.658855,41.891038],[-87.655852,41.894774],[-87.657786,41.89624]]]}}]}