{"type":"FeatureCollection","features":[{"type":"Feature","properties":{"stroke":"#1f77b4","stroke-width":2,"fill":"#1f77b4","fill-opacity":0.28},"geometry":{"type":"Polygon","coordinates":[[[-87.6558,41.89473],[-87.65885,41.89104],[-87.66691,41.8909],[-87.66646,41.87614],[-87.65679,41.87628],[-87.65179,41.87591],[-87.63739,41.87582],[-87.63827,41.87838],[-87.63861,41.88069],[-87.63857,41.88245],[-87.63812,41.88572],[-87.63941,41.88706],[-87.63953,41.88871],[-87.6398,41.88919],[-87.64109,41.89058],[-87.64167,41.89178],[-87.64262,41.89272],[-87.64457,41.89414],[-87.64453,41.89641],[-87.65779,41.89624],[-87.6558,41.89473]]]}},{"type":"Feature","properties":{"stroke":"#9467bd","stroke-width":2,"fill":"#9467bd","fill-opacity":0.28},"geometry":{"type":"Polygon","coordinates":[[[-87.64387,41.89641],[-87.64374,41.89422],[-87.6432,41.89363],[-87.64237,41.8932],[-87.64182,41.89272],[-87.63901,41.88907],[-87.63845,41.88736],[-87.6379,41.88713],[-87.63745,41.8871],[-87.63605,41.88783],[-87.62785,41.88781],[-87.62685,41.8883],[-87.6256,41.88916],[-87.62496,41.8893],[-87.62454,41.8891],[-87.62429,41.88983],[-87.62444,41.89663],[-87.64387,41.89641]]]}},{"type":"Feature","properties":{"stroke":"#17becf","stroke-width":2,"fill":"#17becf","fill-opacity":0.28},"geometry":{"type":"Polygon","coordinates":[[[-87.62414,41.89668],[-87.62393,41.88991],[-87.62414,41.88914],[-87.6234,41.88928],[-87.62072,41.88892],[-87.61772,41.88868],[-87.61568,41.88899],[-87.61477,41.88897],[-87.61432,41.88866],[-87.61437,41.89276],[-87.61699,41.89675],[-87.62414,41.89668]]]}},{"type":"Feature","properties":{"stroke":"#e8b84b","stroke-width":2,"fill":"#e8b84b","fill-opacity":0.28},"geometry":{"type":"Polygon","coordinates":[[[-87.63579,41.88714],[-87.63736,41.88606],[-87.6379,41.88213],[-87.63797,41.88049],[-87.63783,41.87926],[-87.63738,41.87798],[-87.63736,41.87741],[-87.63654,41.8758],[-87.6175,41.87592],[-87.61757,41.88175],[-87.61722,41.88248],[-87.61687,41.88283],[-87.61509,41.88381],[-87.61448,41.88435],[-87.61425,41.88498],[-87.61415,41.88662],[-87.61429,41.88805],[-87.61471,41.88789],[-87.61539,41.88789],[-87.62449,41.88863],[-87.62538,41.88845],[-87.62606,41.88816],[-87.62723,41.88728],[-87.63579,41.88714]]]}},{"type":"Feature","properties":{"stroke":"#3fbf7f","stroke-width":2,"fill":"#3fbf7f","fill-opacity":0.28},"geometry":{"type":"Polygon","coordinates":[[[-87.64334,41.8754],[-87.64416,41.8751],[-87.64455,41.87441],[-87.64392,41.85695],[-87.64486,41.85339],[-87.64486,41.85281],[-87.61477,41.85298],[-87.61931,41.8633],[-87.6197,41.86613],[-87.6195,41.867],[-87.61747,41.86933],[-87.61735,41.86986],[-87.61743,41.87554],[-87.64334,41.8754]]]}},{"type":"Feature","properties":{"stroke":"#e83e8c","stroke-width":2,"fill":"#e83e8c","fill-opacity":0.28},"geometry":{"type":"Polygon","coordinates":[[[-87.65658,41.91078],[-87.65632,41.91055],[-87.65491,41.9104],[-87.64906,41.90366],[-87.64896,41.90333],[-87.64643,41.90077],[-87.64521,41.89855],[-87.64402,41.89721],[-87.64392,41.89656],[-87.6172,41.89692],[-87.6198,41.90094],[-87.62269,41.90141],[-87.62356,41.90199],[-87.6242,41.90271],[-87.62501,41.90493],[-87.62607,41.90916],[-87.62619,41.91126],[-87.65658,41.91078]]]}}]}